GLOBALSTAR M069         
1 31573U 07020C   26199.25331632 -.00000082  00000+0  95270-4 0  9997
2 31573  52.0010 164.1958 0001562 216.8205 281.6316 12.23472315882602
GLOBALSTAR M072         
1 31574U 07020D   26199.27981189 -.00000082  00000+0  30617-4 0  9992
2 31574  51.9950  17.4684 0001659  41.1171 130.0185 11.91658835878689
GLOBALSTAR M066         
1 32265U 07048C   26198.80704101 -.00000040  00000+0  45869-3 0  9993
2 32265  51.9610 330.0128 0005573 106.9042  58.4450 12.30389774863996
GLOBALSTAR M079         
1 37188U 10054A   26198.96176803 -.00000106  00000+0 -11032-4 0  9992
2 37188  52.0055  14.9875 0001131  82.5140  82.7742 12.62266439726439
GLOBALSTAR M074         
1 37189U 10054B   26198.90890626 -.00000107  00000+0 -19610-4 0  9994
2 37189  52.0034  14.4093 0000867  96.7229  68.1707 12.62262051727036
GLOBALSTAR M076         
1 37190U 10054C   26198.93504730 -.00000089  00000+0  84856-4 0  9999
2 37190  52.0048  14.5354 0001103  96.1656  67.4837 12.62262524726755
GLOBALSTAR M077         
1 37191U 10054D   26199.22606667 -.00000103  00000+0 -45561-3 0  9992
2 37191  51.9959 100.5142 0002206 230.7981 301.5684 11.67547265724761
GLOBALSTAR M075         
1 37192U 10054E   26199.10867406 -.00000096  00000+0  42903-4 0  9998
2 37192  51.9955  56.0437 0000780  68.6457 104.9515 12.62267872725848
GLOBALSTAR M073         
1 37193U 10054F   26199.31177213 -.00000093  00000+0  59159-4 0  9990
2 37193  52.0081 329.5504 0001024 100.9186 274.3485 12.62266952727865
GLOBALSTAR M083         
1 37739U 11033A   26199.24986088 -.00000081  00000+0  12908-3 0  9991
2 37739  51.9860 277.9263 0000715 109.3958 285.6598 12.62264296696873
GLOBALSTAR M088         
1 37740U 11033B   26199.32623993 -.00000115  00000+0 -62657-4 0  9991
2 37740  52.0189 184.1945 0000093  47.7688  93.2728 12.62269471692426
GLOBALSTAR M091         
1 37741U 11033C   26199.26553950 -.00000099  00000+0  26549-4 0  9990
2 37741  51.9984 147.2986 0000500  30.0084 135.6251 12.62264247693206
GLOBALSTAR M085         
1 37742U 11033D   26199.08803663 -.00000083  00000+0  11719-3 0  9995
2 37742  52.0126  99.1585 0000839  45.8075  92.8412 12.62264392693693
GLOBALSTAR M081         
1 37743U 11033E   26199.19918519 -.00000087  00000+0  92725-4 0  9996
2 37743  51.9957 101.2208 0000727  58.5070 105.3287 12.62265318693850
GLOBALSTAR M089         
1 37744U 11033F   26199.31935600 -.00000099  00000+0  28500-4 0  9994
2 37744  51.9939  55.0077 0000712  91.9718  79.3342 12.62267609694718
GLOBALSTAR M084         
1 38040U 11080A   26199.01600639 -.00000081  00000+0  12592-3 0  9998
2 38040  52.0017 283.4308 0000768 133.7284  38.2077 12.62263617672658
