{"fetched_at":"2026-07-18T17:29:26.130Z","source":"https://celestrak.org/NORAD/elements/gp.php?GROUP=globalstar&FORMAT=JSON","constellation":"globalstar","records":[{"OBJECT_NAME":"GLOBALSTAR M069","OBJECT_ID":"2007-020C","EPOCH":"2026-07-18T06:04:46.530048","CLASSIFICATION_TYPE":"U","MEAN_MOTION":12.23472315,"ECCENTRICITY":0.00015627,"INCLINATION":52.001,"RA_OF_ASC_NODE":164.1958,"ARG_OF_PERICENTER":216.8205,"MEAN_ANOMALY":281.6316,"EPHEMERIS_TYPE":0,"NORAD_CAT_ID":31573,"ELEMENT_SET_NO":999,"REV_AT_EPOCH":88260,"BSTAR":0.00009527,"MEAN_MOTION_DOT":-8.2e-7,"MEAN_MOTION_DDOT":0},{"OBJECT_NAME":"GLOBALSTAR M072","OBJECT_ID":"2007-020D","EPOCH":"2026-07-18T06:42:55.747296","CLASSIFICATION_TYPE":"U","MEAN_MOTION":11.91658835,"ECCENTRICITY":0.0001659,"INCLINATION":51.995,"RA_OF_ASC_NODE":17.4684,"ARG_OF_PERICENTER":41.1171,"MEAN_ANOMALY":130.0185,"EPHEMERIS_TYPE":0,"NORAD_CAT_ID":31574,"ELEMENT_SET_NO":999,"REV_AT_EPOCH":87868,"BSTAR":0.000030616636,"MEAN_MOTION_DOT":-8.2e-7,"MEAN_MOTION_DDOT":0},{"OBJECT_NAME":"GLOBALSTAR M066","OBJECT_ID":"2007-048C","EPOCH":"2026-07-17T19:22:08.343264","CLASSIFICATION_TYPE":"U","MEAN_MOTION":12.30389774,"ECCENTRICITY":0.00055737,"INCLINATION":51.961,"RA_OF_ASC_NODE":330.0128,"ARG_OF_PERICENTER":106.9042,"MEAN_ANOMALY":58.445,"EPHEMERIS_TYPE":0,"NORAD_CAT_ID":32265,"ELEMENT_SET_NO":999,"REV_AT_EPOCH":86399,"BSTAR":0.00045868787,"MEAN_MOTION_DOT":-4e-7,"MEAN_MOTION_DDOT":0},{"OBJECT_NAME":"GLOBALSTAR M079","OBJECT_ID":"2010-054A","EPOCH":"2026-07-17T23:04:56.757792","CLASSIFICATION_TYPE":"U","MEAN_MOTION":12.62266439,"ECCENTRICITY":0.00011313,"INCLINATION":52.0055,"RA_OF_ASC_NODE":14.9875,"ARG_OF_PERICENTER":82.514,"MEAN_ANOMALY":82.7742,"EPHEMERIS_TYPE":0,"NORAD_CAT_ID":37188,"ELEMENT_SET_NO":999,"REV_AT_EPOCH":72643,"BSTAR":-0.000011032479,"MEAN_MOTION_DOT":-0.00000106,"MEAN_MOTION_DDOT":0},{"OBJECT_NAME":"GLOBALSTAR M074","OBJECT_ID":"2010-054B","EPOCH":"2026-07-17T21:48:49.500864","CLASSIFICATION_TYPE":"U","MEAN_MOTION":12.62262051,"ECCENTRICITY":0.00008672,"INCLINATION":52.0034,"RA_OF_ASC_NODE":14.4093,"ARG_OF_PERICENTER":96.7229,"MEAN_ANOMALY":68.1707,"EPHEMERIS_TYPE":0,"NORAD_CAT_ID":37189,"ELEMENT_SET_NO":999,"REV_AT_EPOCH":72703,"BSTAR":-0.000019609555,"MEAN_MOTION_DOT":-0.00000107,"MEAN_MOTION_DDOT":0},{"OBJECT_NAME":"GLOBALSTAR M076","OBJECT_ID":"2010-054C","EPOCH":"2026-07-17T22:26:28.086720","CLASSIFICATION_TYPE":"U","MEAN_MOTION":12.62262524,"ECCENTRICITY":0.0001103,"INCLINATION":52.0048,"RA_OF_ASC_NODE":14.5354,"ARG_OF_PERICENTER":96.1656,"MEAN_ANOMALY":67.4837,"EPHEMERIS_TYPE":0,"NORAD_CAT_ID":37190,"ELEMENT_SET_NO":999,"REV_AT_EPOCH":72675,"BSTAR":0.00008485578,"MEAN_MOTION_DOT":-8.9e-7,"MEAN_MOTION_DDOT":0},{"OBJECT_NAME":"GLOBALSTAR M077","OBJECT_ID":"2010-054D","EPOCH":"2026-07-18T05:25:32.160288","CLASSIFICATION_TYPE":"U","MEAN_MOTION":11.67547265,"ECCENTRICITY":0.00022063,"INCLINATION":51.9959,"RA_OF_ASC_NODE":100.5142,"ARG_OF_PERICENTER":230.7981,"MEAN_ANOMALY":301.5684,"EPHEMERIS_TYPE":0,"NORAD_CAT_ID":37191,"ELEMENT_SET_NO":999,"REV_AT_EPOCH":72476,"BSTAR":-0.00045560712,"MEAN_MOTION_DOT":-0.00000103,"MEAN_MOTION_DDOT":0},{"OBJECT_NAME":"GLOBALSTAR M075","OBJECT_ID":"2010-054E","EPOCH":"2026-07-18T02:36:29.438784","CLASSIFICATION_TYPE":"U","MEAN_MOTION":12.62267872,"ECCENTRICITY":0.00007808,"INCLINATION":51.9955,"RA_OF_ASC_NODE":56.0437,"ARG_OF_PERICENTER":68.6457,"MEAN_ANOMALY":104.9515,"EPHEMERIS_TYPE":0,"NORAD_CAT_ID":37192,"ELEMENT_SET_NO":999,"REV_AT_EPOCH":72584,"BSTAR":0.000042903224,"MEAN_MOTION_DOT":-9.6e-7,"MEAN_MOTION_DDOT":0},{"OBJECT_NAME":"GLOBALSTAR M073","OBJECT_ID":"2010-054F","EPOCH":"2026-07-18T07:28:57.112032","CLASSIFICATION_TYPE":"U","MEAN_MOTION":12.62266952,"ECCENTRICITY":0.0001024,"INCLINATION":52.0081,"RA_OF_ASC_NODE":329.5504,"ARG_OF_PERICENTER":100.9186,"MEAN_ANOMALY":274.3485,"EPHEMERIS_TYPE":0,"NORAD_CAT_ID":37193,"ELEMENT_SET_NO":999,"REV_AT_EPOCH":72786,"BSTAR":0.000059158976,"MEAN_MOTION_DOT":-9.3e-7,"MEAN_MOTION_DDOT":0},{"OBJECT_NAME":"GLOBALSTAR M083","OBJECT_ID":"2011-033A","EPOCH":"2026-07-18T05:59:47.980032","CLASSIFICATION_TYPE":"U","MEAN_MOTION":12.62264296,"ECCENTRICITY":0.00007155,"INCLINATION":51.986,"RA_OF_ASC_NODE":277.9263,"ARG_OF_PERICENTER":109.3958,"MEAN_ANOMALY":285.6598,"EPHEMERIS_TYPE":0,"NORAD_CAT_ID":37739,"ELEMENT_SET_NO":999,"REV_AT_EPOCH":69687,"BSTAR":0.00012907936,"MEAN_MOTION_DOT":-8.1e-7,"MEAN_MOTION_DDOT":0},{"OBJECT_NAME":"GLOBALSTAR M088","OBJECT_ID":"2011-033B","EPOCH":"2026-07-18T07:49:47.129952","CLASSIFICATION_TYPE":"U","MEAN_MOTION":12.62269471,"ECCENTRICITY":0.00000933,"INCLINATION":52.0189,"RA_OF_ASC_NODE":184.1945,"ARG_OF_PERICENTER":47.7688,"MEAN_ANOMALY":93.2728,"EPHEMERIS_TYPE":0,"NORAD_CAT_ID":37740,"ELEMENT_SET_NO":999,"REV_AT_EPOCH":69242,"BSTAR":-0.000062656761,"MEAN_MOTION_DOT":-0.00000115,"MEAN_MOTION_DDOT":0},{"OBJECT_NAME":"GLOBALSTAR M091","OBJECT_ID":"2011-033C","EPOCH":"2026-07-18T06:22:22.612800","CLASSIFICATION_TYPE":"U","MEAN_MOTION":12.62264247,"ECCENTRICITY":0.00005003,"INCLINATION":51.9984,"RA_OF_ASC_NODE":147.2986,"ARG_OF_PERICENTER":30.0084,"MEAN_ANOMALY":135.6251,"EPHEMERIS_TYPE":0,"NORAD_CAT_ID":37741,"ELEMENT_SET_NO":999,"REV_AT_EPOCH":69320,"BSTAR":0.000026549187,"MEAN_MOTION_DOT":-9.9e-7,"MEAN_MOTION_DDOT":0},{"OBJECT_NAME":"GLOBALSTAR M085","OBJECT_ID":"2011-033D","EPOCH":"2026-07-18T02:06:46.364832","CLASSIFICATION_TYPE":"U","MEAN_MOTION":12.62264392,"ECCENTRICITY":0.00008399,"INCLINATION":52.0126,"RA_OF_ASC_NODE":99.1585,"ARG_OF_PERICENTER":45.8075,"MEAN_ANOMALY":92.8412,"EPHEMERIS_TYPE":0,"NORAD_CAT_ID":37742,"ELEMENT_SET_NO":999,"REV_AT_EPOCH":69369,"BSTAR":0.00011719495,"MEAN_MOTION_DOT":-8.3e-7,"MEAN_MOTION_DDOT":0},{"OBJECT_NAME":"GLOBALSTAR M081","OBJECT_ID":"2011-033E","EPOCH":"2026-07-18T04:46:49.600416","CLASSIFICATION_TYPE":"U","MEAN_MOTION":12.62265318,"ECCENTRICITY":0.00007277,"INCLINATION":51.9957,"RA_OF_ASC_NODE":101.2208,"ARG_OF_PERICENTER":58.507,"MEAN_ANOMALY":105.3287,"EPHEMERIS_TYPE":0,"NORAD_CAT_ID":37743,"ELEMENT_SET_NO":999,"REV_AT_EPOCH":69385,"BSTAR":0.000092725002,"MEAN_MOTION_DOT":-8.7e-7,"MEAN_MOTION_DDOT":0},{"OBJECT_NAME":"GLOBALSTAR M089","OBJECT_ID":"2011-033F","EPOCH":"2026-07-18T07:39:52.358400","CLASSIFICATION_TYPE":"U","MEAN_MOTION":12.62267609,"ECCENTRICITY":0.00007124,"INCLINATION":51.9939,"RA_OF_ASC_NODE":55.0077,"ARG_OF_PERICENTER":91.9718,"MEAN_ANOMALY":79.3342,"EPHEMERIS_TYPE":0,"NORAD_CAT_ID":37744,"ELEMENT_SET_NO":999,"REV_AT_EPOCH":69471,"BSTAR":0.000028500484,"MEAN_MOTION_DOT":-9.9e-7,"MEAN_MOTION_DDOT":0},{"OBJECT_NAME":"GLOBALSTAR M084","OBJECT_ID":"2011-080A","EPOCH":"2026-07-18T00:23:02.952096","CLASSIFICATION_TYPE":"U","MEAN_MOTION":12.62263617,"ECCENTRICITY":0.00007686,"INCLINATION":52.0017,"RA_OF_ASC_NODE":283.4308,"ARG_OF_PERICENTER":133.7284,"MEAN_ANOMALY":38.2077,"EPHEMERIS_TYPE":0,"NORAD_CAT_ID":38040,"ELEMENT_SET_NO":999,"REV_AT_EPOCH":67265,"BSTAR":0.00012592381,"MEAN_MOTION_DOT":-8.1e-7,"MEAN_MOTION_DDOT":0}]}
